{"type": "FeatureCollection", "features": [ {"type": "Feature", "properties": {"norad_id": 66544, "name": "STARLINK-35728", "group": "last-30-days", "lat": 21.68053887799687, "lon": 97.38795376632946, "alt_km": 408.30003771405336, "timestamp": "2025-12-09T14:52:24.941835+00:00", "meta": {"OBJECT_NAME": "STARLINK-35728", "OBJECT_ID": "2025-265AE", "EPOCH": "2025-12-09T06:00:02.000160", "MEAN_MOTION": 15.5341736, "ECCENTRICITY": 0.00015022, "INCLINATION": 43, "RA_OF_ASC_NODE": 74.3038, "ARG_OF_PERICENTER": 275.7692, "MEAN_ANOMALY": 208.0822, "EPHEMERIS_TYPE": 0, "CLASSIFICATION_TYPE": "U", "NORAD_CAT_ID": 66544, "ELEMENT_SET_NO": 999, "REV_AT_EPOCH": 443, "BSTAR": -0.031889917, "MEAN_MOTION_DOT": -0.0183538, "MEAN_MOTION_DDOT": 0}, "tle": {"line1": "1 66544U 25265AE  25343.25002315 -.01835380  00000+0 -31890-1 0  9991", "line2": "2 66544  43.0000  74.3038 0001502 275.7692 208.0822 15.53417360  4433"}}, "geometry": {"type": "Point", "coordinates": [97.38795376632946, 21.68053887799687]}}, {"type": "Feature", "properties": {"norad_id": 66545, "name": "SHIJIAN-30A", "group": "last-30-days", "lat": 21.2236822757229, "lon": 149.67070144493695, "alt_km": 525.5409039768274, "timestamp": "2025-12-09T14:52:24.941845+00:00", "meta": {"OBJECT_NAME": "SHIJIAN-30A", "OBJECT_ID": "2025-266A", "EPOCH": "2025-12-09T07:52:23.952864", "MEAN_MOTION": 15.15540619, "ECCENTRICITY": 0.00127822, "INCLINATION": 51.7993, "RA_OF_ASC_NODE": 348.8452, "ARG_OF_PERICENTER": 343.983, "MEAN_ANOMALY": 16.074, "EPHEMERIS_TYPE": 0, "CLASSIFICATION_TYPE": "U", "NORAD_CAT_ID": 66545, "ELEMENT_SET_NO": 999, "REV_AT_EPOCH": 306, "BSTAR": 0.00074024895, "MEAN_MOTION_DOT": 0.00013955, "MEAN_MOTION_DDOT": 0}, "tle": {"line1": "1 66545U 25266A   25343.32805501  .00013955  00000+0  74025-3 0  9991", "line2": "2 66545  51.7993 348.8452 0012782 343.9830  16.0740 15.15540619  3060"}}, "geometry": {"type": "Point", "coordinates": [149.67070144493695, 21.2236822757229]}}, {"type": "Feature", "properties": {"norad_id": 66546, "name": "SHIJIAN-30B", "group": "last-30-days", "lat": 23.890835968525987, "lon": 147.06640675960787, "alt_km": 523.026815678707, "timestamp": "2025-12-09T14:52:24.941858+00:00", "meta": {"OBJECT_NAME": "SHIJIAN-30B", "OBJECT_ID": "2025-266B", "EPOCH": "2025-12-09T07:53:22.672032", "MEAN_MOTION": 15.15633464, "ECCENTRICITY": 0.00104496, "INCLINATION": 51.7975, "RA_OF_ASC_NODE": 348.8467, "ARG_OF_PERICENTER": 347.1112, "MEAN_ANOMALY": 12.9596, "EPHEMERIS_TYPE": 0, "CLASSIFICATION_TYPE": "U", "NORAD_CAT_ID": 66546, "ELEMENT_SET_NO": 999, "REV_AT_EPOCH": 306, "BSTAR": 0.00084590416, "MEAN_MOTION_DOT": 0.00016029, "MEAN_MOTION_DDOT": 0}, "tle": {"line1": "1 66546U 25266B   25343.32873463  .00016029  00000+0  84590-3 0  9997", "line2": "2 66546  51.7975 348.8467 0010449 347.1112  12.9596 15.15633464  3069"}}, "geometry": {"type": "Point", "coordinates": [147.06640675960787, 23.890835968525987]}}, {"type": "Feature", "properties": {"norad_id": 66547, "name": "SHIJIAN-30C", "group": "last-30-days", "lat": 26.58426881900806, "lon": 144.28261574757113, "alt_km": 523.3281874574341, "timestamp": "2025-12-09T14:52:24.941868+00:00", "meta": {"OBJECT_NAME": "SHIJIAN-30C", "OBJECT_ID": "2025-266C", "EPOCH": "2025-12-09T07:54:20.786400", "MEAN_MOTION": 15.15641651, "ECCENTRICITY": 0.00113601, "INCLINATION": 51.7984, "RA_OF_ASC_NODE": 348.8525, "ARG_OF_PERICENTER": 339.3925, "MEAN_ANOMALY": 20.6592, "EPHEMERIS_TYPE": 0, "CLASSIFICATION_TYPE": "U", "NORAD_CAT_ID": 66547, "ELEMENT_SET_NO": 999, "REV_AT_EPOCH": 306, "BSTAR": 0.00075667219, "MEAN_MOTION_DOT": 0.00014308, "MEAN_MOTION_DDOT": 0}, "tle": {"line1": "1 66547U 25266C   25343.32940725  .00014308  00000+0  75667-3 0  9997", "line2": "2 66547  51.7984 348.8525 0011360 339.3925  20.6592 15.15641651  3062"}}, "geometry": {"type": "Point", "coordinates": [144.28261574757113, 26.58426881900806]}}, {"type": "Feature", "properties": {"norad_id": 66548, "name": "CZ-2C R/B", "group": "last-30-days", "lat": 41.18461330974074, "lon": 123.08855427831699, "alt_km": 425.09734525936256, "timestamp": "2025-12-09T14:52:24.941878+00:00", "meta": {"OBJECT_NAME": "CZ-2C R/B", "OBJECT_ID": "2025-266D", "EPOCH": "2025-12-09T06:29:52.577088", "MEAN_MOTION": 15.30065913, "ECCENTRICITY": 0.00841264, "INCLINATION": 52.0568, "RA_OF_ASC_NODE": 347.8047, "ARG_OF_PERICENTER": 161.1693, "MEAN_ANOMALY": 199.2437, "EPHEMERIS_TYPE": 0, "CLASSIFICATION_TYPE": "U", "NORAD_CAT_ID": 66548, "ELEMENT_SET_NO": 999, "REV_AT_EPOCH": 308, "BSTAR": 0.00042678223, "MEAN_MOTION_DOT": 0.00013661, "MEAN_MOTION_DDOT": 0}, "tle": {"line1": "1 66548U 25266D   25343.27074742  .00013661  00000+0  42678-3 0  9996", "line2": "2 66548  52.0568 347.8047 0084126 161.1693 199.2437 15.30065913  3087"}}, "geometry": {"type": "Point", "coordinates": [123.08855427831699, 41.18461330974074]}}, {"type": "Feature", "properties": {"norad_id": 66549, "name": "SHIJIAN-28", "group": "last-30-days", "lat": -11.133230123366175, "lon": -160.6927117360353, "alt_km": 11485.581442646242, "timestamp": "2025-12-09T14:52:24.941891+00:00", "meta": {"OBJECT_NAME": "SHIJIAN-28", "OBJECT_ID": "2025-277A", "EPOCH": "2025-12-01T04:36:42.476256", "MEAN_MOTION": 2.08595383, "ECCENTRICITY": 0.6308324, "INCLINATION": 11.5392, "RA_OF_ASC_NODE": 275.706, "ARG_OF_PERICENTER": 179.9335, "MEAN_ANOMALY": 180.3971, "EPHEMERIS_TYPE": 0, "CLASSIFICATION_TYPE": "U", "NORAD_CAT_ID": 66549, "ELEMENT_SET_NO": 999, "REV_AT_EPOCH": 5, "BSTAR": 0, "MEAN_MOTION_DOT": -3.3e-07, "MEAN_MOTION_DDOT": 0}, "tle": {"line1": "1 66549U 25277A   25335.19215829 -.00000033  00000+0  00000+0 0  9993", "line2": "2 66549  11.5392 275.7060 6308324 179.9335 180.3971  2.08595383    50"}}, "geometry": {"type": "Point", "coordinates": [-160.6927117360353, -11.133230123366175]}}, {"type": "Feature", "properties": {"norad_id": 66550, "name": "CZ-7A R/B", "group": "last-30-days", "lat": 0.3703720106930861, "lon": -87.07822104410059, "alt_km": 31618.37846533603, "timestamp": "2025-12-09T14:52:24.941909+00:00", "meta": {"OBJECT_NAME": "CZ-7A R/B", "OBJECT_ID": "2025-277B", "EPOCH": "2025-12-08T10:49:33.008736", "MEAN_MOTION": 2.55273447, "ECCENTRICITY": 0.7123859, "INCLINATION": 14.4003, "RA_OF_ASC_NODE": 272.0222, "ARG_OF_PERICENTER": 184.9879, "MEAN_ANOMALY": 159.498, "EPHEMERIS_TYPE": 0, "CLASSIFICATION_TYPE": "U", "NORAD_CAT_ID": 66550, "ELEMENT_SET_NO": 999, "REV_AT_EPOCH": 23, "BSTAR": 0.0028793, "MEAN_MOTION_DOT": 0.01610432, "MEAN_MOTION_DDOT": 9.1299e-07}, "tle": {"line1": "1 66550U 25277B   25342.45107649  .01610432  91299-6  28793-2 0  9991", "line2": "2 66550  14.4003 272.0222 7123859 184.9879 159.4980  2.55273447   234"}}, "geometry": {"type": "Point", "coordinates": [-87.07822104410059, 0.3703720106930861]}}, {"type": "Feature", "properties": {"norad_id": 66551, "name": "UNKNOWN", "group": "last-30-days", "lat": 12.54648936005903, "lon": -148.08305142791642, "alt_km": 328.5989687610554, "timestamp": "2025-12-09T14:52:24.941922+00:00", "meta": {"OBJECT_NAME": "UNKNOWN", "OBJECT_ID": "2025-271AE", "EPOCH": "2025-12-02T16:00:03.000096", "MEAN_MOTION": 15.87051116, "ECCENTRICITY": 7.17e-05, "INCLINATION": 53.1571, "RA_OF_ASC_NODE": 236.7807, "ARG_OF_PERICENTER": 110.7411, "MEAN_ANOMALY": 313.9012, "EPHEMERIS_TYPE": 0, "CLASSIFICATION_TYPE": "U", "NORAD_CAT_ID": 66551, "ELEMENT_SET_NO": 999, "REV_AT_EPOCH": 262, "BSTAR": -0.0074303, "MEAN_MOTION_DOT": -0.01709685, "MEAN_MOTION_DDOT": 0}, "tle": {"line1": "1 66551U 25271AE  25336.66670139 -.01709685  00000+0 -74303-2 0  9993", "line2": "2 66551  53.1571 236.7807 0000717 110.7411 313.9012 15.87051116  2624"}}, "geometry": {"type": "Point", "coordinates": [-148.08305142791642, 12.54648936005903]}}, {"type": "Feature", "properties": {"norad_id": 66554, "name": "GLOBAL-33", "group": "last-30-days", "lat": 36.903958257682355, "lon": -161.5091016822898, "alt_km": 465.02513240040025, "timestamp": "2025-12-09T14:52:24.941933+00:00", "meta": {"OBJECT_NAME": "GLOBAL-33", "OBJECT_ID": "2025-267A", "EPOCH": "2025-12-08T13:19:37.894080", "MEAN_MOTION": 15.31498164, "ECCENTRICITY": 0.00047931, "INCLINATION": 42.0201, "RA_OF_ASC_NODE": 81.1482, "ARG_OF_PERICENTER": 22.7031, "MEAN_ANOMALY": 337.4018, "EPHEMERIS_TYPE": 0, "CLASSIFICATION_TYPE": "U", "NORAD_CAT_ID": 66554, "ELEMENT_SET_NO": 999, "REV_AT_EPOCH": 276, "BSTAR": 0.00059832068, "MEAN_MOTION_DOT": 0.00018392, "MEAN_MOTION_DDOT": 0}, "tle": {"line1": "1 66554U 25267A   25342.55529970  .00018392  00000+0  59832-3 0  9998", "line2": "2 66554  42.0201  81.1482 0004793  22.7031 337.4018 15.31498164  2762"}}, "geometry": {"type": "Point", "coordinates": [-161.5091016822898, 36.903958257682355]}}, {"type": "Feature", "properties": {"norad_id": 66555, "name": "ELECTRON KICK STAGE R/B", "group": "last-30-days", "lat": 7.284914104752285, "lon": -113.2851624684595, "alt_km": 470.39734362491345, "timestamp": "2025-12-09T14:52:24.941945+00:00", "meta": {"OBJECT_NAME": "ELECTRON KICK STAGE R/B", "OBJECT_ID": "2025-267B", "EPOCH": "2025-12-09T06:19:11.123616", "MEAN_MOTION": 15.32547454, "ECCENTRICITY": 0.00067878, "INCLINATION": 42.0196, "RA_OF_ASC_NODE": 76.9385, "ARG_OF_PERICENTER": 26.0094, "MEAN_ANOMALY": 334.1083, "EPHEMERIS_TYPE": 0, "CLASSIFICATION_TYPE": "U", "NORAD_CAT_ID": 66555, "ELEMENT_SET_NO": 999, "REV_AT_EPOCH": 287, "BSTAR": 0.00099006824, "MEAN_MOTION_DOT": 0.00031697, "MEAN_MOTION_DDOT": 0}, "tle": {"line1": "1 66555U 25267B   25343.26332319  .00031697  00000+0  99007-3 0  9998", "line2": "2 66555  42.0196  76.9385 0006787  26.0094 334.1083 15.32547454  2877"}}, "geometry": {"type": "Point", "coordinates": [-113.2851624684595, 7.284914104752285]}}]}